[{"OBJECT_NAME":"STARLINK-33763","OBJECT_ID":"2025-069V","EPOCH":"2026-03-09T11:14:52.306080","MEAN_MOTION":15.30201351,"ECCENTRICITY":0.00010989,"INCLINATION":53.1597,"RA_OF_ASC_NODE":143.2914,"ARG_OF_PERICENTER":77.8335,"MEAN_ANOMALY":282.2789,"EPHEMERIS_TYPE":0,"CLASSIFICATION_TYPE":"U","NORAD_CAT_ID":63452,"ELEMENT_SET_NO":999,"REV_AT_EPOCH":5337,"BSTAR":0.00084829196,"MEAN_MOTION_DOT":0.0002485,"MEAN_MOTION_DDOT":0},{"OBJECT_NAME":"TITAN 4B R\/B","OBJECT_ID":"2005-016B","EPOCH":"2026-03-09T20:27:57.848832","MEAN_MOTION":15.42682045,"ECCENTRICITY":0.00616552,"INCLINATION":56.9964,"RA_OF_ASC_NODE":245.9411,"ARG_OF_PERICENTER":20.2929,"MEAN_ANOMALY":340.0555,"EPHEMERIS_TYPE":0,"CLASSIFICATION_TYPE":"U","NORAD_CAT_ID":28647,"ELEMENT_SET_NO":999,"REV_AT_EPOCH":37707,"BSTAR":0.00046483736,"MEAN_MOTION_DOT":0.0002164,"MEAN_MOTION_DDOT":0}]
